{"type": "FeatureCollection", "features": [ {"type": "Feature", "properties": {"norad_id": 40697, "name": "SENTINEL-2A", "group": "resource", "lat": -67.81801577552547, "lon": -138.41394351367288, "alt_km": 796.9763969562309, "timestamp": "2025-12-16T19:34:23.922240+00:00", "meta": {"OBJECT_NAME": "SENTINEL-2A", "OBJECT_ID": "2015-028A", "EPOCH": "2025-12-15T22:16:16.417920", "MEAN_MOTION": 14.30814075, "ECCENTRICITY": 0.00010608, "INCLINATION": 98.5689, "RA_OF_ASC_NODE": 62.4147, "ARG_OF_PERICENTER": 87.7277, "MEAN_ANOMALY": 272.4027, "EPHEMERIS_TYPE": 0, "CLASSIFICATION_TYPE": "U", "NORAD_CAT_ID": 40697, "ELEMENT_SET_NO": 999, "REV_AT_EPOCH": 54752, "BSTAR": 1.4997107e-05, "MEAN_MOTION_DOT": -4e-08, "MEAN_MOTION_DDOT": 0}, "tle": {"line1": "1 40697U 15028A   25349.92796780 -.00000004  00000+0  14997-4 0  9991", "line2": "2 40697  98.5689  62.4147 0001060  87.7277 272.4027 14.30814075547522"}}, "geometry": {"type": "Point", "coordinates": [-138.41394351367288, -67.81801577552547]}}, {"type": "Feature", "properties": {"norad_id": 40701, "name": "GAOFEN-8", "group": "resource", "lat": 73.50951171976398, "lon": 141.99485954376414, "alt_km": 437.6648109026046, "timestamp": "2025-12-16T19:34:23.922250+00:00", "meta": {"OBJECT_NAME": "GAOFEN-8", "OBJECT_ID": "2015-030A", "EPOCH": "2025-12-15T22:57:24.295680", "MEAN_MOTION": 15.38663288, "ECCENTRICITY": 0.00116823, "INCLINATION": 97.6903, "RA_OF_ASC_NODE": 168.2534, "ARG_OF_PERICENTER": 127.0126, "MEAN_ANOMALY": 233.2189, "EPHEMERIS_TYPE": 0, "CLASSIFICATION_TYPE": "U", "NORAD_CAT_ID": 40701, "ELEMENT_SET_NO": 999, "REV_AT_EPOCH": 58320, "BSTAR": 0.00043317667, "MEAN_MOTION_DOT": 0.00016509, "MEAN_MOTION_DDOT": 0}, "tle": {"line1": "1 40701U 15030A   25349.95653120  .00016509  00000+0  43318-3 0  9997", "line2": "2 40701  97.6903 168.2534 0011682 127.0126 233.2189 15.38663288583200"}}, "geometry": {"type": "Point", "coordinates": [141.99485954376414, 73.50951171976398]}}, {"type": "Feature", "properties": {"norad_id": 40718, "name": "CARBONITE 1 (CBNT-1)", "group": "resource", "lat": -82.21557700660303, "lon": -87.40231786604537, "alt_km": 629.8714110873862, "timestamp": "2025-12-16T19:34:23.922260+00:00", "meta": {"OBJECT_NAME": "CARBONITE 1 (CBNT-1)", "OBJECT_ID": "2015-032D", "EPOCH": "2025-12-15T22:55:53.542848", "MEAN_MOTION": 14.82763104, "ECCENTRICITY": 0.0014615, "INCLINATION": 97.6401, "RA_OF_ASC_NODE": 170.8576, "ARG_OF_PERICENTER": 170.5501, "MEAN_ANOMALY": 189.5991, "EPHEMERIS_TYPE": 0, "CLASSIFICATION_TYPE": "U", "NORAD_CAT_ID": 40718, "ELEMENT_SET_NO": 999, "REV_AT_EPOCH": 56218, "BSTAR": 0.00025721775, "MEAN_MOTION_DOT": 2.032e-05, "MEAN_MOTION_DDOT": 0}, "tle": {"line1": "1 40718U 15032D   25349.95548082  .00002032  00000+0  25722-3 0  9992", "line2": "2 40718  97.6401 170.8576 0014615 170.5501 189.5991 14.82763104562189"}}, "geometry": {"type": "Point", "coordinates": [-87.40231786604537, -82.21557700660303]}}, {"type": "Feature", "properties": {"norad_id": 40878, "name": "YAOGAN-27", "group": "resource", "lat": 43.783603520340485, "lon": -29.585193268069226, "alt_km": 1199.519488300125, "timestamp": "2025-12-16T19:34:23.922270+00:00", "meta": {"OBJECT_NAME": "YAOGAN-27", "OBJECT_ID": "2015-040A", "EPOCH": "2025-12-15T23:16:38.777664", "MEAN_MOTION": 13.1605924, "ECCENTRICITY": 0.00076267, "INCLINATION": 100.101, "RA_OF_ASC_NODE": 339.4439, "ARG_OF_PERICENTER": 278.7602, "MEAN_ANOMALY": 81.2648, "EPHEMERIS_TYPE": 0, "CLASSIFICATION_TYPE": "U", "NORAD_CAT_ID": 40878, "ELEMENT_SET_NO": 999, "REV_AT_EPOCH": 49356, "BSTAR": -0.00030034156, "MEAN_MOTION_DOT": -1.56e-06, "MEAN_MOTION_DDOT": 0}, "tle": {"line1": "1 40878U 15040A   25349.96989326 -.00000156  00000+0 -30034-3 0  9998", "line2": "2 40878 100.1010 339.4439 0007626 278.7602  81.2648 13.16059240493567"}}, "geometry": {"type": "Point", "coordinates": [-29.585193268069226, 43.783603520340485]}}, {"type": "Feature", "properties": {"norad_id": 40894, "name": "GAOFEN-9 01", "group": "resource", "lat": -4.5286856997443925, "lon": -151.01525563052905, "alt_km": 644.1210414985899, "timestamp": "2025-12-16T19:34:23.922280+00:00", "meta": {"OBJECT_NAME": "GAOFEN-9 01", "OBJECT_ID": "2015-047A", "EPOCH": "2025-12-15T23:18:19.388736", "MEAN_MOTION": 14.82430207, "ECCENTRICITY": 0.00281395, "INCLINATION": 97.654, "RA_OF_ASC_NODE": 28.787, "ARG_OF_PERICENTER": 23.9619, "MEAN_ANOMALY": 336.2898, "EPHEMERIS_TYPE": 0, "CLASSIFICATION_TYPE": "U", "NORAD_CAT_ID": 40894, "ELEMENT_SET_NO": 999, "REV_AT_EPOCH": 55304, "BSTAR": 0.00014776635, "MEAN_MOTION_DOT": 1.141e-05, "MEAN_MOTION_DDOT": 0}, "tle": {"line1": "1 40894U 15047A   25349.97105774  .00001141  00000+0  14777-3 0  9990", "line2": "2 40894  97.6540  28.7870 0028139  23.9619 336.2898 14.82430207553040"}}, "geometry": {"type": "Point", "coordinates": [-151.01525563052905, -4.5286856997443925]}}, {"type": "Feature", "properties": {"norad_id": 41026, "name": "YAOGAN-28", "group": "resource", "lat": -50.09326858982902, "lon": -60.30031241278661, "alt_km": 503.4993597402199, "timestamp": "2025-12-16T19:34:23.922291+00:00", "meta": {"OBJECT_NAME": "YAOGAN-28", "OBJECT_ID": "2015-064A", "EPOCH": "2025-12-15T23:39:40.841568", "MEAN_MOTION": 15.24410808, "ECCENTRICITY": 0.00125036, "INCLINATION": 97.2802, "RA_OF_ASC_NODE": 127.6863, "ARG_OF_PERICENTER": 115.5507, "MEAN_ANOMALY": 244.7025, "EPHEMERIS_TYPE": 0, "CLASSIFICATION_TYPE": "U", "NORAD_CAT_ID": 41026, "ELEMENT_SET_NO": 999, "REV_AT_EPOCH": 56274, "BSTAR": 0.00025999288, "MEAN_MOTION_DOT": 6.319e-05, "MEAN_MOTION_DDOT": 0}, "tle": {"line1": "1 41026U 15064A   25349.98588937  .00006319  00000+0  25999-3 0  9994", "line2": "2 41026  97.2802 127.6863 0012503 115.5507 244.7025 15.24410808562742"}}, "geometry": {"type": "Point", "coordinates": [-60.30031241278661, -50.09326858982902]}}, {"type": "Feature", "properties": {"norad_id": 41038, "name": "YAOGAN-29", "group": "resource", "lat": 76.40681902083499, "lon": -21.68062468695067, "alt_km": 613.061248680674, "timestamp": "2025-12-16T19:34:23.922302+00:00", "meta": {"OBJECT_NAME": "YAOGAN-29", "OBJECT_ID": "2015-069A", "EPOCH": "2025-12-15T23:47:06.020160", "MEAN_MOTION": 14.82887133, "ECCENTRICITY": 1.495e-05, "INCLINATION": 98.0225, "RA_OF_ASC_NODE": 13.1736, "ARG_OF_PERICENTER": 204.2946, "MEAN_ANOMALY": 155.826, "EPHEMERIS_TYPE": 0, "CLASSIFICATION_TYPE": "U", "NORAD_CAT_ID": 41038, "ELEMENT_SET_NO": 999, "REV_AT_EPOCH": 54347, "BSTAR": 5.0680641e-05, "MEAN_MOTION_DOT": 3.57e-06, "MEAN_MOTION_DDOT": 0}, "tle": {"line1": "1 41038U 15069A   25349.99104190  .00000357  00000+0  50681-4 0  9991", "line2": "2 41038  98.0225  13.1736 0000149 204.2946 155.8260 14.82887133543471"}}, "geometry": {"type": "Point", "coordinates": [-21.68062468695067, 76.40681902083499]}}, {"type": "Feature", "properties": {"norad_id": 41167, "name": "KENT RIDGE 1", "group": "resource", "lat": -13.082544261529138, "lon": 61.271745177264755, "alt_km": 496.036862168934, "timestamp": "2025-12-16T19:34:23.922312+00:00", "meta": {"OBJECT_NAME": "KENT RIDGE 1", "OBJECT_ID": "2015-077B", "EPOCH": "2025-12-15T22:04:06.566016", "MEAN_MOTION": 15.21663173, "ECCENTRICITY": 0.00084772, "INCLINATION": 14.9783, "RA_OF_ASC_NODE": 187.5467, "ARG_OF_PERICENTER": 175.9141, "MEAN_ANOMALY": 184.1251, "EPHEMERIS_TYPE": 0, "CLASSIFICATION_TYPE": "U", "NORAD_CAT_ID": 41167, "ELEMENT_SET_NO": 999, "REV_AT_EPOCH": 55312, "BSTAR": 0.00013227014, "MEAN_MOTION_DOT": 3.834e-05, "MEAN_MOTION_DDOT": 0}, "tle": {"line1": "1 41167U 15077B   25349.91952044  .00003834  00000+0  13227-3 0  9991", "line2": "2 41167  14.9783 187.5467 0008477 175.9141 184.1251 15.21663173553128"}}, "geometry": {"type": "Point", "coordinates": [61.271745177264755, -13.082544261529138]}}, {"type": "Feature", "properties": {"norad_id": 41194, "name": "GAOFEN-4", "group": "resource", "lat": 0.13713810910888172, "lon": 124.96976222548557, "alt_km": 35776.45944120196, "timestamp": "2025-12-16T19:34:23.922325+00:00", "meta": {"OBJECT_NAME": "GAOFEN-4", "OBJECT_ID": "2015-083A", "EPOCH": "2025-12-16T01:52:31.968192", "MEAN_MOTION": 1.00279401, "ECCENTRICITY": 0.0002739, "INCLINATION": 0.1787, "RA_OF_ASC_NODE": 81.6902, "ARG_OF_PERICENTER": 91.9856, "MEAN_ANOMALY": 45.1161, "EPHEMERIS_TYPE": 0, "CLASSIFICATION_TYPE": "U", "NORAD_CAT_ID": 41194, "ELEMENT_SET_NO": 999, "REV_AT_EPOCH": 3669, "BSTAR": 0, "MEAN_MOTION_DOT": -3.13e-06, "MEAN_MOTION_DDOT": 0}, "tle": {"line1": "1 41194U 15083A   25350.07814778 -.00000313  00000+0  00000+0 0  9999", "line2": "2 41194   0.1787  81.6902 0002739  91.9856  45.1161  1.00279401 36695"}}, "geometry": {"type": "Point", "coordinates": [124.96976222548557, 0.13713810910888172]}}, {"type": "Feature", "properties": {"norad_id": 41240, "name": "JASON-3", "group": "resource", "lat": 50.12039389729928, "lon": -62.89789813442696, "alt_km": 1310.1109833898427, "timestamp": "2025-12-16T19:34:23.922336+00:00", "meta": {"OBJECT_NAME": "JASON-3", "OBJECT_ID": "2016-002A", "EPOCH": "2025-12-15T22:25:56.408160", "MEAN_MOTION": 12.87626716, "ECCENTRICITY": 0.00071685, "INCLINATION": 66.0393, "RA_OF_ASC_NODE": 151.107, "ARG_OF_PERICENTER": 270.9908, "MEAN_ANOMALY": 89.029, "EPHEMERIS_TYPE": 0, "CLASSIFICATION_TYPE": "U", "NORAD_CAT_ID": 41240, "ELEMENT_SET_NO": 999, "REV_AT_EPOCH": 46365, "BSTAR": 0.00012911346, "MEAN_MOTION_DOT": -3e-07, "MEAN_MOTION_DDOT": 0}, "tle": {"line1": "1 41240U 16002A   25349.93468065 -.00000030  00000+0  12911-3 0  9994", "line2": "2 41240  66.0393 151.1070 0007168 270.9908  89.0290 12.87626716463650"}}, "geometry": {"type": "Point", "coordinates": [-62.89789813442696, 50.12039389729928]}}]}